NORAD_CAT_ID,OBJECT_NAME,OBJECT_TYPE,EPOCH,MEAN_MOTION,ECCENTRICITY,INCLINATION,RA_OF_ASC_NODE,ARG_OF_PERICENTER,MEAN_ANOMALY,BSTAR,MEAN_MOTION_DOT,MEAN_MOTION_DDOT,TLE_LINE0,TLE_LINE1,TLE_LINE2,SEMIMAJOR_AXIS,PERIOD,APOGEE,PERIGEE,DECAYED
52671.0,STARLINK-4071,PAYLOAD,2023-11-08 11:09:25,15.08848305,0.0001477,53.2184,19.9104,100.7306,259.3852,0.00089286,0.00013954,0.0,0 STARLINK-4071,1 52671U 22053R   23312.46487749  .00013954  00000-0  89286-3 0  9991,2 52671  53.2184  19.9104 0001477 100.7306 259.3852 15.08848305 82383,6917.855,95.437,540.742,538.698,0.0
52671.0,STARLINK-4071,PAYLOAD,2023-11-09 11:00:12,15.0884205,0.0001304,53.2189,15.4582,92.764,267.3501,0.000595,9.195e-05,0.0,0 STARLINK-4071,1 52671U 22053R   23313.45847592  .00009195  00000-0  59500-3 0  9995,2 52671  53.2189  15.4582 0001304  92.7640 267.3501 15.08842050 82111,6917.874,95.437,540.641,538.837,0.0
52671.0,STARLINK-4071,PAYLOAD,2023-11-10 10:50:58,15.08848064,0.0001738,53.2184,10.989,111.8987,248.219,-8.0484e-05,-1.569e-05,0.0,0 STARLINK-4071,1 52671U 22053R   23314.45206684 -.00001569  00000-0 -80484-4 0  9992,2 52671  53.2184  10.9890 0001738 111.8987 248.2190 15.08848064 82681,6917.856,95.437,540.923,538.518,0.0
52671.0,STARLINK-4071,PAYLOAD,2023-11-11 10:41:45,15.08846689,0.0001518,53.2176,6.5303,104.6484,255.4677,7.7688e-06,-1.64e-06,0.0,0 STARLINK-4071,1 52671U 22053R   23315.44566714 -.00000164  00000-0  77688-5 0  9997,2 52671  53.2176   6.5303 0001518 104.6484 255.4677 15.08846689 82838,6917.86,95.437,540.775,538.675,0.0
52671.0,STARLINK-4071,PAYLOAD,2023-11-11 23:24:51,15.08838435,0.0001361,53.2176,4.1521,103.6356,256.4787,6.7917e-05,7.93e-06,0.0,0 STARLINK-4071,1 52671U 22053R   23315.97559078  .00000793  00000-0  67917-4 0  9990,2 52671  53.2176   4.1521 0001361 103.6356 256.4787 15.08838435 82492,6917.885,95.438,540.692,538.809,0.0
52671.0,STARLINK-4071,PAYLOAD,2023-11-12 12:07:56,15.08839239,0.0001329,53.2164,1.7685,95.7844,264.3299,9.1699e-05,1.172e-05,0.0,0 STARLINK-4071,1 52671U 22053R   23316.50551389  .00001172  00000-0  91699-4 0  9993,2 52671  53.2164   1.7685 0001329  95.7844 264.3299 15.08839239 82994,6917.883,95.438,540.667,538.828,0.0
52671.0,STARLINK-4071,PAYLOAD,2023-11-12 20:04:51,15.0884236,0.0001326,53.2165,0.2821,110.8912,249.2222,4.9726e-05,5.04e-06,0.0,0 STARLINK-4071,1 52671U 22053R   23316.83671154  .00000504  00000-0  49726-4 0  9994,2 52671  53.2165   0.2821 0001326 110.8912 249.2222 15.08842360 83047,6917.873,95.437,540.655,538.821,0.0
52671.0,STARLINK-4071,PAYLOAD,2023-11-13 11:58:42,15.08854509,0.0001475,53.2171,357.3089,86.0941,274.022,0.00020183,2.927e-05,0.0,0 STARLINK-4071,1 52671U 22053R   23317.49910417  .00002927  00000-0  20183-3 0  9991,2 52671  53.2171 357.3089 0001475  86.0941 274.0220 15.08854509 82723,6917.836,95.437,540.721,538.681,0.0
52671.0,STARLINK-4071,PAYLOAD,2023-11-14 02:17:11,15.08837774,0.0001571,53.216,354.6346,87.8012,272.316,9.9296e-05,1.293e-05,0.0,0 STARLINK-4071,1 52671U 22053R   23318.09527388  .00001293  00000-0  99296-4 0  9996,2 52671  53.2160 354.6346 0001571  87.8012 272.3160 15.08837774 82811,6917.887,95.438,540.839,538.665,0.0
52671.0,STARLINK-4071,PAYLOAD,2023-11-14 10:14:07,15.08838359,0.0001559,53.2165,353.1487,85.0966,275.0204,0.0001054,1.39e-05,0.0,0 STARLINK-4071,1 52671U 22053R   23318.42647503  .00001390  00000-0  10540-3 0  9997,2 52671  53.2165 353.1487 0001559  85.0966 275.0204 15.08838359 83281,6917.885,95.438,540.829,538.672,0.0
52671.0,STARLINK-4071,PAYLOAD,2023-11-14 19:46:26,15.08841795,0.0001566,53.2164,351.3638,84.1435,275.9735,0.00010687,1.413e-05,0.0,0 STARLINK-4071,1 52671U 22053R   23318.82391414  .00001413  00000-0  10687-3 0  9996,2 52671  53.2164 351.3638 0001566  84.1435 275.9735 15.08841795 83340,6917.875,95.437,540.823,538.657,0.0
52671.0,STARLINK-4071,PAYLOAD,2023-11-15 11:40:17,15.08847971,0.0001627,53.216,348.3898,84.7915,275.3263,0.00021464,3.13e-05,0.0,0 STARLINK-4071,1 52671U 22053R   23319.48631142  .00003130  00000-0  21464-3 0  9997,2 52671  53.2160 348.3898 0001627  84.7915 275.3263 15.08847971 83024,6917.856,95.437,540.847,538.595,0.0
52671.0,STARLINK-4071,PAYLOAD,2023-11-15 19:37:13,15.08843142,0.0001694,53.2165,346.9044,79.9557,280.1626,0.00017478,2.495e-05,0.0,0 STARLINK-4071,1 52671U 22053R   23319.81751480  .00002495  00000-0  17478-3 0  9995,2 52671  53.2165 346.9044 0001694  79.9557 280.1626 15.08843142 83076,6917.871,95.437,540.908,538.564,0.0
52671.0,STARLINK-4071,PAYLOAD,2023-11-16 08:20:18,15.08837993,0.0001577,53.2171,344.5243,85.7338,274.3835,0.00014314,1.991e-05,0.0,0 STARLINK-4071,1 52671U 22053R   23320.34743739  .00001991  00000-0  14314-3 0  9999,2 52671  53.2171 344.5243 0001577  85.7338 274.3835 15.08837993 83153,6917.887,95.438,540.842,538.661,0.0
52671.0,STARLINK-4071,PAYLOAD,2023-11-17 08:11:05,15.0884866,0.0001533,53.2173,340.0623,98.5288,261.5878,-5.6655e-05,-1.19e-05,0.0,0 STARLINK-4071,1 52671U 22053R   23321.34103490 -.00001190  00000-0 -56655-4 0  9992,2 52671  53.2173 340.0623 0001533  98.5288 261.5878 15.08848660 83727,6917.854,95.437,540.779,538.658,0.0
52671.0,STARLINK-4071,PAYLOAD,2023-11-18 01:40:20,15.08835443,0.0001548,53.2169,336.7928,88.9362,271.1808,8.5687e-05,1.076e-05,0.0,0 STARLINK-4071,1 52671U 22053R   23322.06968132  .00001076  00000-0  85687-4 0  9992,2 52671  53.2169 336.7928 0001548  88.9362 271.1808 15.08835443 83415,6917.894,95.438,540.83,538.688,0.0
52671.0,STARLINK-4071,PAYLOAD,2023-11-18 08:01:52,15.08837614,0.0001529,53.2169,335.6032,90.5777,269.539,8.4966e-05,1.064e-05,0.0,0 STARLINK-4071,1 52671U 22053R   23322.33464091  .00001064  00000-0  84966-4 0  9993,2 52671  53.2169 335.6032 0001529  90.5777 269.5390 15.08837614 83876,6917.888,95.438,540.81,538.695,0.0
52671.0,STARLINK-4071,PAYLOAD,2023-11-18 17:34:11,15.08837507,0.0001525,53.2167,333.8192,90.8779,269.2388,7.7409e-05,9.44e-06,0.0,0 STARLINK-4071,1 52671U 22053R   23322.73208175  .00000944  00000-0  77409-4 0  9996,2 52671  53.2167 333.8192 0001525  90.8779 269.2388 15.08837507 83934,6917.888,95.438,540.808,538.698,0.0
52671.0,STARLINK-4071,PAYLOAD,2023-11-19 07:52:39,15.08842621,0.0001505,53.2167,331.1427,91.3018,268.8147,0.0001217,1.65e-05,0.0,0 STARLINK-4071,1 52671U 22053R   23323.32823819  .00001650  00000-0  12170-3 0  9998,2 52671  53.2167 331.1427 0001505  91.3018 268.8147 15.08842621 83601,6917.872,95.437,540.779,538.696,0.0
52671.0,STARLINK-4071,PAYLOAD,2023-11-19 17:24:58,15.08839997,0.0001508,53.2167,329.3592,93.6005,266.516,9.3432e-05,1.199e-05,0.0,0 STARLINK-4071,1 52671U 22053R   23323.72568054  .00001199  00000-0  93432-4 0  9998,2 52671  53.2167 329.3592 0001508  93.6005 266.5160 15.08839997 84082,6917.88,95.438,540.789,538.702,0.0
52671.0,STARLINK-4071,PAYLOAD,2023-11-20 09:18:49,15.08845247,0.0001521,53.2169,326.3848,91.0626,269.0541,0.00013,1.782e-05,0.0,0 STARLINK-4071,1 52671U 22053R   23324.38807693  .00001782  00000-0  13000-3 0  9996,2 52671  53.2169 326.3848 0001521  91.0626 269.0541 15.08845247 83761,6917.864,95.437,540.782,538.677,0.0
52671.0,STARLINK-4071,PAYLOAD,2023-11-20 17:15:45,15.0884491,0.0001521,53.2171,324.8976,89.1431,270.9736,8.0177e-05,9.88e-06,0.0,0 STARLINK-4071,1 52671U 22053R   23324.71927790  .00000988  00000-0  80177-4 0  9991,2 52671  53.2171 324.8976 0001521  89.1431 270.9736 15.08844910 84237,6917.865,95.437,540.783,538.678,0.0
52671.0,STARLINK-4071,PAYLOAD,2023-11-20 23:37:18,15.08836618,0.0001594,53.2175,323.7075,87.141,272.9764,2.5776e-05,1.22e-06,0.0,0 STARLINK-4071,1 52671U 22053R   23324.98424461  .00000122  00000-0  25776-4 0  9991,2 52671  53.2175 323.7075 0001594  87.1410 272.9764 15.08836618 83850,6917.891,95.438,540.858,538.653,0.0
52671.0,STARLINK-4071,PAYLOAD,2023-11-21 09:09:36,15.08847276,0.0001606,53.2175,321.9229,88.8825,271.2351,7.6017e-05,9.22e-06,0.0,0 STARLINK-4071,1 52671U 22053R   23325.38167672  .00000922  00000-0  76017-4 0  9996,2 52671  53.2175 321.9229 0001606  88.8825 271.2351 15.08847276 83916,6917.858,95.437,540.834,538.612,0.0
52671.0,STARLINK-4071,PAYLOAD,2023-11-22 07:25:00,15.08846842,0.0001759,53.217,317.7599,81.8079,278.3112,0.00014454,2.013e-05,0.0,0 STARLINK-4071,1 52671U 22053R   23326.30903687  .00002013  00000-0  14454-3 0  9992,2 52671  53.2170 317.7599 0001759  81.8079 278.3112 15.08846842 84470,6917.859,95.437,540.941,538.508,0.0
52671.0,STARLINK-4071,PAYLOAD,2023-11-23 04:05:01,15.0883979,0.0001838,53.2166,313.894,76.6661,283.4536,0.00012988,1.78e-05,0.0,0 STARLINK-4071,1 52671U 22053R   23327.17016099  .00001780  00000-0  12988-3 0  9990,2 52671  53.2166 313.8940 0001838  76.6661 283.4536 15.08839790 84188,6917.881,95.438,541.018,538.475,0.0
52671.0,STARLINK-4071,PAYLOAD,2023-11-23 08:51:11,15.08843088,0.0002001,53.2175,312.9959,71.8726,288.2484,0.00013038,1.788e-05,0.0,0 STARLINK-4071,1 52671U 22053R   23327.36887902  .00001788  00000-0  13038-3 0  9995,2 52671  53.2175 312.9959 0002001  71.8726 288.2484 15.08843088 84630,6917.871,95.437,541.12,538.352,0.0
52671.0,STARLINK-4071,PAYLOAD,2023-11-24 08:41:58,15.088395,0.0001705,53.216,308.5374,81.6673,278.4513,3.5138e-06,-2.32e-06,0.0,0 STARLINK-4071,1 52671U 22053R   23328.36248282 -.00000232  00000-0  35138-5 0  9999,2 52671  53.2160 308.5374 0001705  81.6673 278.4513 15.08839500 84364,6917.882,95.438,540.926,538.567,0.0
52671.0,STARLINK-4071,PAYLOAD,2023-11-25 05:21:59,15.08848386,0.0001477,53.2156,304.6693,100.9123,259.2036,0.00015648,2.204e-05,0.0,0 STARLINK-4071,1 52671U 22053R   23329.22360118  .00002204  00000-0  15648-3 0  9990,2 52671  53.2156 304.6693 0001477 100.9123 259.2036 15.08848386 84911,6917.855,95.437,540.742,538.698,0.0
52671.0,STARLINK-4071,PAYLOAD,2023-11-25 22:51:13,15.08847196,0.0001509,53.2152,301.3985,102.2378,257.8783,0.00026695,3.964e-05,0.0,0 STARLINK-4071,1 52671U 22053R   23329.95224215  .00003964  00000-0  26695-3 0  9995,2 52671  53.2152 301.3985 0001509 102.2378 257.8783 15.08847196 85022,6917.858,95.437,540.767,538.679,0.0
